{"type": "FeatureCollection", "features": [ {"type": "Feature", "properties": {"norad_id": 54234, "name": "NOAA 21 (JPSS-2)", "group": "weather", "lat": -47.64195216942599, "lon": 89.6173965801608, "alt_km": 835.4551911734743, "timestamp": "2025-12-08T23:34:03.612734+00:00", "meta": {"OBJECT_NAME": "NOAA 21 (JPSS-2)", "OBJECT_ID": "2022-150A", "EPOCH": "2025-12-08T14:02:13.892064", "MEAN_MOTION": 14.19522629, "ECCENTRICITY": 0.00023794, "INCLINATION": 98.7457, "RA_OF_ASC_NODE": 278.9451, "ARG_OF_PERICENTER": 46.1042, "MEAN_ANOMALY": 314.033, "EPHEMERIS_TYPE": 0, "CLASSIFICATION_TYPE": "U", "NORAD_CAT_ID": 54234, "ELEMENT_SET_NO": 999, "REV_AT_EPOCH": 15950, "BSTAR": 0.0001350313, "MEAN_MOTION_DOT": 2.41e-06, "MEAN_MOTION_DDOT": 0}, "tle": {"line1": "1 54234U 22150A   25342.58488301  .00000241  00000+0  13503-3 0  9992", "line2": "2 54234  98.7457 278.9451 0002379  46.1042 314.0330 14.19522629159509"}}, "geometry": {"type": "Point", "coordinates": [89.6173965801608, -47.64195216942599]}}, {"type": "Feature", "properties": {"norad_id": 54743, "name": "METEOSAT-12 (MTG-I1)", "group": "weather", "lat": 0.4915030070730658, "lon": 71.26465172665728, "alt_km": 35791.424890656526, "timestamp": "2025-12-08T23:34:03.612746+00:00", "meta": {"OBJECT_NAME": "METEOSAT-12 (MTG-I1)", "OBJECT_ID": "2022-170C", "EPOCH": "2025-12-08T06:45:14.433120", "MEAN_MOTION": 1.00274861, "ECCENTRICITY": 0.00014895, "INCLINATION": 0.7252, "RA_OF_ASC_NODE": 30.8853, "ARG_OF_PERICENTER": 223.0145, "MEAN_ANOMALY": 284.4666, "EPHEMERIS_TYPE": 0, "CLASSIFICATION_TYPE": "U", "NORAD_CAT_ID": 54743, "ELEMENT_SET_NO": 999, "REV_AT_EPOCH": 1106, "BSTAR": 0, "MEAN_MOTION_DOT": -4e-08, "MEAN_MOTION_DDOT": 0}, "tle": {"line1": "1 54743U 22170C   25342.28141705 -.00000004  00000+0  00000+0 0  9992", "line2": "2 54743   0.7252  30.8853 0001489 223.0145 284.4666  1.00274861 11060"}}, "geometry": {"type": "Point", "coordinates": [71.26465172665728, 0.4915030070730658]}}, {"type": "Feature", "properties": {"norad_id": 55973, "name": "TIANMU-1 03", "group": "weather", "lat": -44.02710200779292, "lon": 152.85648021088295, "alt_km": 451.9990402772528, "timestamp": "2025-12-08T23:34:03.612757+00:00", "meta": {"OBJECT_NAME": "TIANMU-1 03", "OBJECT_ID": "2023-039A", "EPOCH": "2025-12-08T14:24:30.008448", "MEAN_MOTION": 15.40739263, "ECCENTRICITY": 0.00045176, "INCLINATION": 97.5111, "RA_OF_ASC_NODE": 145.1371, "ARG_OF_PERICENTER": 73.128, "MEAN_ANOMALY": 287.0461, "EPHEMERIS_TYPE": 0, "CLASSIFICATION_TYPE": "U", "NORAD_CAT_ID": 55973, "ELEMENT_SET_NO": 999, "REV_AT_EPOCH": 15142, "BSTAR": 0.00049168257, "MEAN_MOTION_DOT": 0.00020047, "MEAN_MOTION_DDOT": 0}, "tle": {"line1": "1 55973U 23039A   25342.60034732  .00020047  00000+0  49168-3 0  9990", "line2": "2 55973  97.5111 145.1371 0004517  73.1280 287.0461 15.40739263151426"}}, "geometry": {"type": "Point", "coordinates": [152.85648021088295, -44.02710200779292]}}, {"type": "Feature", "properties": {"norad_id": 55974, "name": "TIANMU-1 04", "group": "weather", "lat": 63.98531221187758, "lon": 129.0515005869178, "alt_km": 433.1522645964551, "timestamp": "2025-12-08T23:34:03.612776+00:00", "meta": {"OBJECT_NAME": "TIANMU-1 04", "OBJECT_ID": "2023-039B", "EPOCH": "2025-12-08T13:56:11.817312", "MEAN_MOTION": 15.41072862, "ECCENTRICITY": 0.00051778, "INCLINATION": 97.5043, "RA_OF_ASC_NODE": 144.3096, "ARG_OF_PERICENTER": 68.4966, "MEAN_ANOMALY": 291.6831, "EPHEMERIS_TYPE": 0, "CLASSIFICATION_TYPE": "U", "NORAD_CAT_ID": 55974, "ELEMENT_SET_NO": 999, "REV_AT_EPOCH": 15142, "BSTAR": 0.00049373363, "MEAN_MOTION_DOT": 0.00020357, "MEAN_MOTION_DDOT": 0}, "tle": {"line1": "1 55974U 23039B   25342.58069233  .00020357  00000+0  49373-3 0  9994", "line2": "2 55974  97.5043 144.3096 0005177  68.4966 291.6831 15.41072862151425"}}, "geometry": {"type": "Point", "coordinates": [129.0515005869178, 63.98531221187758]}}, {"type": "Feature", "properties": {"norad_id": 55975, "name": "TIANMU-1 05", "group": "weather", "lat": 75.78413445385043, "lon": -3.4086272794987234, "alt_km": 433.94152866390505, "timestamp": "2025-12-08T23:34:03.612787+00:00", "meta": {"OBJECT_NAME": "TIANMU-1 05", "OBJECT_ID": "2023-039C", "EPOCH": "2025-12-08T13:46:26.587776", "MEAN_MOTION": 15.40696628, "ECCENTRICITY": 0.00043725, "INCLINATION": 97.5089, "RA_OF_ASC_NODE": 144.7948, "ARG_OF_PERICENTER": 89.6603, "MEAN_ANOMALY": 270.5144, "EPHEMERIS_TYPE": 0, "CLASSIFICATION_TYPE": "U", "NORAD_CAT_ID": 55975, "ELEMENT_SET_NO": 999, "REV_AT_EPOCH": 15140, "BSTAR": 0.0004898633, "MEAN_MOTION_DOT": 0.00019943, "MEAN_MOTION_DDOT": 0}, "tle": {"line1": "1 55975U 23039C   25342.57391884  .00019943  00000+0  48986-3 0  9992", "line2": "2 55975  97.5089 144.7948 0004372  89.6603 270.5144 15.40696628151407"}}, "geometry": {"type": "Point", "coordinates": [-3.4086272794987234, 75.78413445385043]}}, {"type": "Feature", "properties": {"norad_id": 55976, "name": "TIANMU-1 06", "group": "weather", "lat": 51.577159606142715, "lon": 136.1025276880851, "alt_km": 435.28243731703515, "timestamp": "2025-12-08T23:34:03.612799+00:00", "meta": {"OBJECT_NAME": "TIANMU-1 06", "OBJECT_ID": "2023-039D", "EPOCH": "2025-12-08T13:59:31.886880", "MEAN_MOTION": 15.41125489, "ECCENTRICITY": 0.00046902, "INCLINATION": 97.5101, "RA_OF_ASC_NODE": 145.2659, "ARG_OF_PERICENTER": 85.1101, "MEAN_ANOMALY": 275.068, "EPHEMERIS_TYPE": 0, "CLASSIFICATION_TYPE": "U", "NORAD_CAT_ID": 55976, "ELEMENT_SET_NO": 999, "REV_AT_EPOCH": 15142, "BSTAR": 0.00049460333, "MEAN_MOTION_DOT": 0.00020427, "MEAN_MOTION_DDOT": 0}, "tle": {"line1": "1 55976U 23039D   25342.58300795  .00020427  00000+0  49460-3 0  9992", "line2": "2 55976  97.5101 145.2659 0004690  85.1101 275.0680 15.41125489151425"}}, "geometry": {"type": "Point", "coordinates": [136.1025276880851, 51.577159606142715]}}, {"type": "Feature", "properties": {"norad_id": 56232, "name": "FENGYUN 3G", "group": "weather", "lat": -43.44877052364792, "lon": -165.8708862363957, "alt_km": 417.31442218634584, "timestamp": "2025-12-08T23:34:03.612815+00:00", "meta": {"OBJECT_NAME": "FENGYUN 3G", "OBJECT_ID": "2023-055A", "EPOCH": "2025-12-08T11:29:27.474144", "MEAN_MOTION": 15.53264614, "ECCENTRICITY": 0.00092233, "INCLINATION": 49.9938, "RA_OF_ASC_NODE": 249.4374, "ARG_OF_PERICENTER": 128.3635, "MEAN_ANOMALY": 231.8163, "EPHEMERIS_TYPE": 0, "CLASSIFICATION_TYPE": "U", "NORAD_CAT_ID": 56232, "ELEMENT_SET_NO": 999, "REV_AT_EPOCH": 15036, "BSTAR": 0.00059541133, "MEAN_MOTION_DOT": 0.00038023, "MEAN_MOTION_DDOT": 0}, "tle": {"line1": "1 56232U 23055A   25342.47879021  .00038023  00000+0  59541-3 0  9999", "line2": "2 56232  49.9938 249.4374 0009223 128.3635 231.8163 15.53264614150365"}}, "geometry": {"type": "Point", "coordinates": [-165.8708862363957, -43.44877052364792]}}, {"type": "Feature", "properties": {"norad_id": 57166, "name": "METEOR-M2 3", "group": "weather", "lat": 71.95263557776651, "lon": 8.776121379468506, "alt_km": 803.106276959893, "timestamp": "2025-12-08T23:34:03.612825+00:00", "meta": {"OBJECT_NAME": "METEOR-M2 3", "OBJECT_ID": "2023-091A", "EPOCH": "2025-12-08T14:47:22.797312", "MEAN_MOTION": 14.2402544, "ECCENTRICITY": 0.00041408, "INCLINATION": 98.6384, "RA_OF_ASC_NODE": 36.2275, "ARG_OF_PERICENTER": 20.2037, "MEAN_ANOMALY": 339.9305, "EPHEMERIS_TYPE": 0, "CLASSIFICATION_TYPE": "U", "NORAD_CAT_ID": 57166, "ELEMENT_SET_NO": 999, "REV_AT_EPOCH": 12739, "BSTAR": 4.4478567e-05, "MEAN_MOTION_DOT": 5.9e-07, "MEAN_MOTION_DDOT": 0}, "tle": {"line1": "1 57166U 23091A   25342.61623608  .00000059  00000+0  44479-4 0  9993", "line2": "2 57166  98.6384  36.2275 0004140  20.2037 339.9305 14.24025440127393"}}, "geometry": {"type": "Point", "coordinates": [8.776121379468506, 71.95263557776651]}}, {"type": "Feature", "properties": {"norad_id": 57399, "name": "TIANMU-1 07", "group": "weather", "lat": -62.57365792723686, "lon": 47.19175295211427, "alt_km": 492.52743553253003, "timestamp": "2025-12-08T23:34:03.612835+00:00", "meta": {"OBJECT_NAME": "TIANMU-1 07", "OBJECT_ID": "2023-101A", "EPOCH": "2025-12-08T14:24:54.079488", "MEAN_MOTION": 15.27980669, "ECCENTRICITY": 0.00056386, "INCLINATION": 97.2877, "RA_OF_ASC_NODE": 32.5418, "ARG_OF_PERICENTER": 91.9641, "MEAN_ANOMALY": 268.2244, "EPHEMERIS_TYPE": 0, "CLASSIFICATION_TYPE": "U", "NORAD_CAT_ID": 57399, "ELEMENT_SET_NO": 999, "REV_AT_EPOCH": 13252, "BSTAR": 0.00037265809, "MEAN_MOTION_DOT": 0.00010109, "MEAN_MOTION_DDOT": 0}, "tle": {"line1": "1 57399U 23101A   25342.60062592  .00010109  00000+0  37266-3 0  9993", "line2": "2 57399  97.2877  32.5418 0005638  91.9641 268.2244 15.27980669132524"}}, "geometry": {"type": "Point", "coordinates": [47.19175295211427, -62.57365792723686]}}, {"type": "Feature", "properties": {"norad_id": 57400, "name": "TIANMU-1 08", "group": "weather", "lat": 60.520310276450246, "lon": -134.20440698756715, "alt_km": 471.31429762603875, "timestamp": "2025-12-08T23:34:03.612846+00:00", "meta": {"OBJECT_NAME": "TIANMU-1 08", "OBJECT_ID": "2023-101B", "EPOCH": "2025-12-08T15:11:32.518464", "MEAN_MOTION": 15.27965476, "ECCENTRICITY": 0.00075632, "INCLINATION": 97.2866, "RA_OF_ASC_NODE": 32.3723, "ARG_OF_PERICENTER": 95.2963, "MEAN_ANOMALY": 264.914, "EPHEMERIS_TYPE": 0, "CLASSIFICATION_TYPE": "U", "NORAD_CAT_ID": 57400, "ELEMENT_SET_NO": 999, "REV_AT_EPOCH": 13252, "BSTAR": 0.0003882907, "MEAN_MOTION_DOT": 0.00010536, "MEAN_MOTION_DDOT": 0}, "tle": {"line1": "1 57400U 23101B   25342.63301526  .00010536  00000+0  38829-3 0  9992", "line2": "2 57400  97.2866  32.3723 0007563  95.2963 264.9140 15.27965476132522"}}, "geometry": {"type": "Point", "coordinates": [-134.20440698756715, 60.520310276450246]}}]}